[{"OBJECT_NAME":"STARLINK-4396","OBJECT_ID":"2022-104BB","EPOCH":"2026-03-09T16:43:25.952160","MEAN_MOTION":15.08839215,"ECCENTRICITY":0.00012514,"INCLINATION":53.2157,"RA_OF_ASC_NODE":224.2768,"ARG_OF_PERICENTER":63.2686,"MEAN_ANOMALY":296.8434,"EPHEMERIS_TYPE":0,"CLASSIFICATION_TYPE":"U","NORAD_CAT_ID":53637,"ELEMENT_SET_NO":999,"REV_AT_EPOCH":19622,"BSTAR":0.00012932129,"MEAN_MOTION_DOT":1.771e-5,"MEAN_MOTION_DDOT":0},{"OBJECT_NAME":"AVUM R\/B","OBJECT_ID":"2015-028B","EPOCH":"2026-03-09T15:47:10.915008","MEAN_MOTION":15.38120394,"ECCENTRICITY":0.01316946,"INCLINATION":98.6577,"RA_OF_ASC_NODE":312.3046,"ARG_OF_PERICENTER":250.9525,"MEAN_ANOMALY":107.7413,"EPHEMERIS_TYPE":0,"CLASSIFICATION_TYPE":"U","NORAD_CAT_ID":40698,"ELEMENT_SET_NO":999,"REV_AT_EPOCH":58785,"BSTAR":0.00031736457,"MEAN_MOTION_DOT":0.00015963,"MEAN_MOTION_DDOT":0}]
